OBJECT C                
1 57582U 23117C   24142.18092083  .00010457  00000+0  55233-3 0  9992
2 57582  97.4876 214.6097 0011438  36.5303 323.6708 15.15637506 43090
